*******************************************************************************
Ephemeris / WWW_USER Wed Sep  4 11:50:15 2024 Pasadena, USA      / Horizons    
*******************************************************************************
Target body name: Jupiter (599)                   {source: jup365_merged}
Center body name: Earth (399)                     {source: DE441}
Center-site name: Gemini South Obs., Cerro Pachon
*******************************************************************************
Start time      : A.D. 2019-Feb-01 00:00:00.0000 UT      
Stop  time      : A.D. 2019-Feb-01 23:59:00.0000 UT      
Step-size       : 1 minutes
*******************************************************************************
Target pole/equ : IAU_JUPITER                     {West-longitude positive}
Target radii    : 71492.0, 71492.0, 66854.0 km    {Equator_a, b, pole_c}       
Center geodetic : 289.2634, -30.2406227, 2.71233  {E-lon(deg),Lat(deg),Alt(km)}
Center cylindric: 289.2634,5517.21435,-3194.81213 {E-lon(deg),Dxy(km),Dz(km)}
Center pole/equ : ITRF93                          {East-longitude positive}
Center radii    : 6378.137, 6378.137, 6356.752 km {Equator_a, b, pole_c}       
Target primary  : Sun
Vis. interferer : MOON (R_eq= 1737.400) km        {source: DE441}
Rel. light bend : Sun                             {source: jup365_merged}
Rel. lght bnd GM: 1.3271E+11 km^3/s^2                                          
Atmos refraction: NO (AIRLESS)
RA format       : HMS
Time format     : CAL 
Calendar mode   : Mixed Julian/Gregorian
RTS-only print  : NO       
EOP file        : eop.240903.p241127                                           
EOP coverage    : DATA-BASED 1962-JAN-20 TO 2024-SEP-03. PREDICTS-> 2024-NOV-26
Units conversion: 1 au= 149597870.700 km, c= 299792.458 km/s, 1 day= 86400.0 s 
Table cut-offs 1: Elevation (-90.0deg=NO ),Airmass (>38.000=NO), Daylight (YES)
Table cut-offs 2: Solar elongation (  0.0,180.0=NO ),Local Hour Angle( 0.0=NO )
Table cut-offs 3: RA/DEC angular rate (     0.0=NO )                           
*******************************************************************************
 Date__(UT)__HR:MN     R.A._________(ICRF)_________DEC
******************************************************
$$SOE
 2019-Feb-01 00:00 C   17 05 57.480820 -22 13 55.63433
 2019-Feb-01 00:01 C   17 05 57.512188 -22 13 55.67395
 2019-Feb-01 00:02 C   17 05 57.543556 -22 13 55.71357
 2019-Feb-01 00:03 C   17 05 57.574924 -22 13 55.75320
 2019-Feb-01 00:04 C   17 05 57.606293 -22 13 55.79284
 2019-Feb-01 00:05 C   17 05 57.637662 -22 13 55.83249
 2019-Feb-01 00:06 C   17 05 57.669031 -22 13 55.87214
 2019-Feb-01 00:07 C   17 05 57.700400 -22 13 55.91181
 2019-Feb-01 00:08 C   17 05 57.731770 -22 13 55.95148
 2019-Feb-01 00:09 N   17 05 57.763140 -22 13 55.99116
 2019-Feb-01 00:10 N   17 05 57.794510 -22 13 56.03085
 2019-Feb-01 00:11 N   17 05 57.825880 -22 13 56.07055
 2019-Feb-01 00:12 N   17 05 57.857251 -22 13 56.11026
 2019-Feb-01 00:13 N   17 05 57.888622 -22 13 56.14997
 2019-Feb-01 00:14 N   17 05 57.919993 -22 13 56.18970
 2019-Feb-01 00:15 N   17 05 57.951364 -22 13 56.22943
 2019-Feb-01 00:16 N   17 05 57.982736 -22 13 56.26917
 2019-Feb-01 00:17 N   17 05 58.014107 -22 13 56.30892
 2019-Feb-01 00:18 N   17 05 58.045479 -22 13 56.34868
 2019-Feb-01 00:19 N   17 05 58.076851 -22 13 56.38845
 2019-Feb-01 00:20 N   17 05 58.108223 -22 13 56.42822
 2019-Feb-01 00:21 N   17 05 58.139596 -22 13 56.46800
 2019-Feb-01 00:22 N   17 05 58.170968 -22 13 56.50780
 2019-Feb-01 00:23 N   17 05 58.202341 -22 13 56.54760
 2019-Feb-01 00:24 N   17 05 58.233714 -22 13 56.58741
 2019-Feb-01 00:25 N   17 05 58.265087 -22 13 56.62723
 2019-Feb-01 00:26 N   17 05 58.296460 -22 13 56.66705
 2019-Feb-01 00:27 N   17 05 58.327833 -22 13 56.70689
 2019-Feb-01 00:28 N   17 05 58.359207 -22 13 56.74673
 2019-Feb-01 00:29 N   17 05 58.390580 -22 13 56.78658
 2019-Feb-01 00:30 N   17 05 58.421954 -22 13 56.82644
 2019-Feb-01 00:31 N   17 05 58.453327 -22 13 56.86631
 2019-Feb-01 00:32 N   17 05 58.484701 -22 13 56.90619
 2019-Feb-01 00:33 N   17 05 58.516075 -22 13 56.94608
 2019-Feb-01 00:34 N   17 05 58.547448 -22 13 56.98598
 2019-Feb-01 00:35 N   17 05 58.578822 -22 13 57.02588
 2019-Feb-01 00:36 N   17 05 58.610196 -22 13 57.06579
 2019-Feb-01 00:37 N   17 05 58.641570 -22 13 57.10572
 2019-Feb-01 00:38 N   17 05 58.672944 -22 13 57.14565
 2019-Feb-01 00:39 A   17 05 58.704318 -22 13 57.18558
 2019-Feb-01 00:40 A   17 05 58.735692 -22 13 57.22553
 2019-Feb-01 00:41 A   17 05 58.767066 -22 13 57.26549
 2019-Feb-01 00:42 A   17 05 58.798440 -22 13 57.30545
 2019-Feb-01 00:43 A   17 05 58.829815 -22 13 57.34543
 2019-Feb-01 00:44 A   17 05 58.861189 -22 13 57.38541
 2019-Feb-01 00:45 A   17 05 58.892563 -22 13 57.42540
 2019-Feb-01 00:46 A   17 05 58.923937 -22 13 57.46540
 2019-Feb-01 00:47 A   17 05 58.955311 -22 13 57.50541
 2019-Feb-01 00:48 A   17 05 58.986684 -22 13 57.54543
 2019-Feb-01 00:49 A   17 05 59.018058 -22 13 57.58545
 2019-Feb-01 00:50 A   17 05 59.049432 -22 13 57.62549
 2019-Feb-01 00:51 A   17 05 59.080806 -22 13 57.66553
 2019-Feb-01 00:52 A   17 05 59.112179 -22 13 57.70558
 2019-Feb-01 00:53 A   17 05 59.143553 -22 13 57.74565
 2019-Feb-01 00:54 A   17 05 59.174927 -22 13 57.78572
 2019-Feb-01 00:55 A   17 05 59.206300 -22 13 57.82579
 2019-Feb-01 00:56 A   17 05 59.237673 -22 13 57.86588
 2019-Feb-01 00:57 A   17 05 59.269046 -22 13 57.90598
 2019-Feb-01 00:58 A   17 05 59.300419 -22 13 57.94608
 2019-Feb-01 00:59 A   17 05 59.331792 -22 13 57.98620
 2019-Feb-01 01:00 A   17 05 59.363165 -22 13 58.02632
 2019-Feb-01 01:01 A   17 05 59.394538 -22 13 58.06645
 2019-Feb-01 01:02 A   17 05 59.425910 -22 13 58.10659
 2019-Feb-01 01:03 A   17 05 59.457282 -22 13 58.14674
 2019-Feb-01 01:04 A   17 05 59.488655 -22 13 58.18689
 2019-Feb-01 01:05 A   17 05 59.520027 -22 13 58.22706
 2019-Feb-01 01:06 A   17 05 59.551398 -22 13 58.26723
 2019-Feb-01 01:07 A   17 05 59.582770 -22 13 58.30742
 2019-Feb-01 01:08 A   17 05 59.614141 -22 13 58.34761
 2019-Feb-01 01:09 A   17 05 59.645512 -22 13 58.38781
 2019-Feb-01 01:10 A   17 05 59.676883 -22 13 58.42802
 2019-Feb-01 01:11 A   17 05 59.708254 -22 13 58.46824
 2019-Feb-01 01:12     17 05 59.739625 -22 13 58.50847
 2019-Feb-01 01:13     17 05 59.770995 -22 13 58.54870
 2019-Feb-01 01:14     17 05 59.802365 -22 13 58.58895
 2019-Feb-01 01:15     17 05 59.833735 -22 13 58.62920
 2019-Feb-01 01:16     17 05 59.865104 -22 13 58.66946
 2019-Feb-01 01:17     17 05 59.896473 -22 13 58.70973
 2019-Feb-01 01:18     17 05 59.927842 -22 13 58.75001
 2019-Feb-01 01:19     17 05 59.959211 -22 13 58.79030
 2019-Feb-01 01:20     17 05 59.990579 -22 13 58.83060
 2019-Feb-01 01:21     17 06 00.021947 -22 13 58.87090
 2019-Feb-01 01:22     17 06 00.053315 -22 13 58.91122
 2019-Feb-01 01:23     17 06 00.084682 -22 13 58.95154
 2019-Feb-01 01:24     17 06 00.116050 -22 13 58.99187
 2019-Feb-01 01:25     17 06 00.147416 -22 13 59.03221
 2019-Feb-01 01:26     17 06 00.178783 -22 13 59.07256
 2019-Feb-01 01:27     17 06 00.210149 -22 13 59.11292
 2019-Feb-01 01:28     17 06 00.241515 -22 13 59.15329
 2019-Feb-01 01:29     17 06 00.272880 -22 13 59.19366
 2019-Feb-01 01:30     17 06 00.304245 -22 13 59.23405
 2019-Feb-01 01:31     17 06 00.335609 -22 13 59.27444
 2019-Feb-01 01:32     17 06 00.366974 -22 13 59.31484
 2019-Feb-01 01:33     17 06 00.398337 -22 13 59.35525
 2019-Feb-01 01:34     17 06 00.429701 -22 13 59.39567
 2019-Feb-01 01:35     17 06 00.461064 -22 13 59.43610
 2019-Feb-01 01:36     17 06 00.492426 -22 13 59.47653
 2019-Feb-01 01:37     17 06 00.523789 -22 13 59.51698
 2019-Feb-01 01:38     17 06 00.555150 -22 13 59.55743
 2019-Feb-01 01:39     17 06 00.586512 -22 13 59.59790
 2019-Feb-01 01:40     17 06 00.617872 -22 13 59.63837
 2019-Feb-01 01:41     17 06 00.649233 -22 13 59.67885
 2019-Feb-01 01:42     17 06 00.680593 -22 13 59.71933
 2019-Feb-01 01:43     17 06 00.711952 -22 13 59.75983
 2019-Feb-01 01:44     17 06 00.743311 -22 13 59.80034
 2019-Feb-01 01:45     17 06 00.774669 -22 13 59.84085
 2019-Feb-01 01:46     17 06 00.806027 -22 13 59.88137
 2019-Feb-01 01:47     17 06 00.837385 -22 13 59.92190
 2019-Feb-01 01:48     17 06 00.868742 -22 13 59.96244
 2019-Feb-01 01:49     17 06 00.900098 -22 14 00.00299
 2019-Feb-01 01:50     17 06 00.931454 -22 14 00.04355
 2019-Feb-01 01:51     17 06 00.962809 -22 14 00.08411
 2019-Feb-01 01:52     17 06 00.994164 -22 14 00.12469
 2019-Feb-01 01:53     17 06 01.025518 -22 14 00.16527
 2019-Feb-01 01:54     17 06 01.056872 -22 14 00.20586
 2019-Feb-01 01:55     17 06 01.088225 -22 14 00.24646
 2019-Feb-01 01:56     17 06 01.119578 -22 14 00.28707
 2019-Feb-01 01:57     17 06 01.150930 -22 14 00.32769
 2019-Feb-01 01:58     17 06 01.182281 -22 14 00.36831
 2019-Feb-01 01:59     17 06 01.213632 -22 14 00.40895
 2019-Feb-01 02:00     17 06 01.244982 -22 14 00.44959
 2019-Feb-01 02:01     17 06 01.276332 -22 14 00.49024
 2019-Feb-01 02:02     17 06 01.307681 -22 14 00.53090
 2019-Feb-01 02:03     17 06 01.339029 -22 14 00.57157
 2019-Feb-01 02:04     17 06 01.370377 -22 14 00.61224
 2019-Feb-01 02:05     17 06 01.401724 -22 14 00.65293
 2019-Feb-01 02:06     17 06 01.433070 -22 14 00.69362
 2019-Feb-01 02:07     17 06 01.464416 -22 14 00.73432
 2019-Feb-01 02:08     17 06 01.495761 -22 14 00.77503
 2019-Feb-01 02:09     17 06 01.527105 -22 14 00.81575
 2019-Feb-01 02:10     17 06 01.558449 -22 14 00.85647
 2019-Feb-01 02:11     17 06 01.589792 -22 14 00.89721
 2019-Feb-01 02:12     17 06 01.621134 -22 14 00.93795
 2019-Feb-01 02:13     17 06 01.652476 -22 14 00.97870
 2019-Feb-01 02:14     17 06 01.683817 -22 14 01.01946
 2019-Feb-01 02:15     17 06 01.715157 -22 14 01.06023
 2019-Feb-01 02:16     17 06 01.746497 -22 14 01.10101
 2019-Feb-01 02:17     17 06 01.777835 -22 14 01.14179
 2019-Feb-01 02:18     17 06 01.809173 -22 14 01.18259
 2019-Feb-01 02:19     17 06 01.840511 -22 14 01.22339
